start=new Date('2021-11-03T00:00:00.000Z').valueOf();
sats=[{"SITE":"AFETR","FILE":"3198361","REV_AT_EPOCH":"9455","CENTER_NAME":"EARTH","GP_ID":"188776838","COUNTRY_CODE":"US","MEAN_MOTION_DOT":"-0.00002396","INCLINATION":"53.0540","EPHEMERIS_TYPE":"0","OBJECT_NAME":"STARLINK-1243","OBJECT_ID":"2020-012BJ","PERIOD":"95.593","BSTAR":"-0.00014207000000","CLASSIFICATION_TYPE":"U","APOAPSIS":"548.371","NORAD_CAT_ID":"45234","DECAY_DATE":null,"RCS_SIZE":"LARGE","RA_OF_ASC_NODE":"336.2221","REF_FRAME":"TEME","ARG_OF_PERICENTER":"71.6491","MEAN_MOTION":"15.06388394","ELEMENT_SET_NO":"999","SEMIMAJOR_AXIS":"6925.384","ECCENTRICITY":"0.00016200","PERIAPSIS":"546.127","MEAN_ANOMALY":"288.4674","MEAN_ELEMENT_THEORY":"SGP4","TLE_LINE2":"2 45234  53.0540 336.2221 0001620  71.6491 288.4674 15.06388394 94552","MEAN_MOTION_DDOT":"0.0000000000000","LAUNCH_DATE":"2020-02-17","EPOCH":"2021-11-02T12:18:38.923200","OBJECT_TYPE":"PAYLOAD","TIME_SYSTEM":"UTC","TLE_LINE1":"1 45234U 20012BJ  21306.51295050 -.00002396  00000-0 -14207-3 0  9991"},{"REV_AT_EPOCH":"9546","CENTER_NAME":"EARTH","FILE":"3197731","SITE":"AFETR","GP_ID":"188736619","OBJECT_ID":"2020-012BK","OBJECT_NAME":"STARLINK-1246","EPHEMERIS_TYPE":"0","INCLINATION":"53.0556","MEAN_MOTION_DOT":"-0.00000606","COUNTRY_CODE":"US","CLASSIFICATION_TYPE":"U","BSTAR":"-0.00002182400000","PERIOD":"95.593","DECAY_DATE":null,"APOAPSIS":"548.238","NORAD_CAT_ID":"45235","MEAN_MOTION":"15.06392066","ARG_OF_PERICENTER":"87.9884","REF_FRAME":"TEME","RA_OF_ASC_NODE":"336.8915","RCS_SIZE":"LARGE","LAUNCH_DATE":"2020-02-17","MEAN_MOTION_DDOT":"0.0000000000000","TLE_LINE2":"2 45235  53.0556 336.8915 0001444  87.9884 272.1270 15.06392066 95460","MEAN_ELEMENT_THEORY":"SGP4","MEAN_ANOMALY":"272.1270","PERIAPSIS":"546.238","ELEMENT_SET_NO":"999","SEMIMAJOR_AXIS":"6925.373","ECCENTRICITY":"0.00014440","TLE_LINE1":"1 45235U 20012BK  21306.36551387 -.00000606  00000-0 -21824-4 0  9999","TIME_SYSTEM":"UTC","OBJECT_TYPE":"PAYLOAD","EPOCH":"2021-11-02T08:46:20.398368"},{"BSTAR":"0.00008325500000","PERIOD":"95.592","CLASSIFICATION_TYPE":"U","COUNTRY_CODE":"US","EPHEMERIS_TYPE":"0","OBJECT_NAME":"STARLINK-1247","OBJECT_ID":"2020-012BL","MEAN_MOTION_DOT":"0.00000959","INCLINATION":"53.0541","GP_ID":"188776887","SITE":"AFETR","CENTER_NAME":"EARTH","REV_AT_EPOCH":"9511","FILE":"3198361","EPOCH":"2021-11-02T16:17:28.907520","OBJECT_TYPE":"PAYLOAD","TIME_SYSTEM":"UTC","TLE_LINE1":"1 45236U 20012BL  21306.67880680  .00000959  00000-0  83255-4 0  9990","PERIAPSIS":"546.168","SEMIMAJOR_AXIS":"6925.331","ELEMENT_SET_NO":"999","ECCENTRICITY":"0.00014840","LAUNCH_DATE":"2020-02-17","MEAN_ANOMALY":"285.5880","MEAN_ELEMENT_THEORY":"SGP4","TLE_LINE2":"2 45236  53.0541 295.4808 0001484  74.5272 285.5880 15.06405741 95115","MEAN_MOTION_DDOT":"0.0000000000000","ARG_OF_PERICENTER":"74.5272","REF_FRAME":"TEME","RA_OF_ASC_NODE":"295.4808","RCS_SIZE":"LARGE","MEAN_MOTION":"15.06405741","NORAD_CAT_ID":"45236","APOAPSIS":"548.224","DECAY_DATE":null},{"COUNTRY_CODE":"US","INCLINATION":"53.0553","MEAN_MOTION_DOT":"-0.00000190","EPHEMERIS_TYPE":"0","OBJECT_NAME":"STARLINK-1270","OBJECT_ID":"2020-012BM","PERIOD":"95.593","BSTAR":"0.00000616150000","CLASSIFICATION_TYPE":"U","SITE":"AFETR","FILE":"3198350","CENTER_NAME":"EARTH","REV_AT_EPOCH":"9606","GP_ID":"188773346","SEMIMAJOR_AXIS":"6925.381","ELEMENT_SET_NO":"999","ECCENTRICITY":"0.00013790","PERIAPSIS":"546.291","MEAN_ANOMALY":"282.5298","MEAN_ELEMENT_THEORY":"SGP4","MEAN_MOTION_DDOT":"0.0000000000000","TLE_LINE2":"2 45237  53.0553 295.0897 0001379  77.5845 282.5298 15.06389333 96068","LAUNCH_DATE":"2020-02-17","EPOCH":"2021-11-02T18:24:53.330688","TIME_SYSTEM":"UTC","OBJECT_TYPE":"PAYLOAD","TLE_LINE1":"1 45237U 20012BM  21306.76728392 -.00000190  00000-0  61615-5 0  9997","APOAPSIS":"548.201","NORAD_CAT_ID":"45237","DECAY_DATE":null,"RA_OF_ASC_NODE":"295.0897","RCS_SIZE":"LARGE","ARG_OF_PERICENTER":"77.5845","REF_FRAME":"TEME","MEAN_MOTION":"15.06389333"},{"GP_ID":"188772109","FILE":"3198350","REV_AT_EPOCH":"9077","CENTER_NAME":"EARTH","SITE":"AFETR","CLASSIFICATION_TYPE":"U","PERIOD":"95.591","BSTAR":"0.00017592000000","INCLINATION":"53.0547","MEAN_MOTION_DOT":"0.00002341","OBJECT_ID":"2020-019A","OBJECT_NAME":"STARLINK-1279","EPHEMERIS_TYPE":"0","COUNTRY_CODE":"US","MEAN_MOTION":"15.06413980","RCS_SIZE":"LARGE","RA_OF_ASC_NODE":"65.8602","REF_FRAME":"TEME","ARG_OF_PERICENTER":"92.2735","DECAY_DATE":null,"NORAD_CAT_ID":"45360","APOAPSIS":"547.903","TLE_LINE1":"1 45360U 20019A   21306.59311696  .00002341  00000-0  17592-3 0  9999","OBJECT_TYPE":"PAYLOAD","TIME_SYSTEM":"UTC","EPOCH":"2021-11-02T14:14:05.305344","TLE_LINE2":"2 45360  53.0547  65.8602 0001058  92.2735 267.8375 15.06413980 90771","MEAN_MOTION_DDOT":"0.0000000000000","MEAN_ELEMENT_THEORY":"SGP4","MEAN_ANOMALY":"267.8375","LAUNCH_DATE":"2020-03-18","SEMIMAJOR_AXIS":"6925.306","ELEMENT_SET_NO":"999","ECCENTRICITY":"0.00010580","PERIAPSIS":"546.438"},{"GP_ID":"188735640","REV_AT_EPOCH":"9062","CENTER_NAME":"EARTH","FILE":"3197731","SITE":"AFETR","CLASSIFICATION_TYPE":"U","BSTAR":"0.00004026500000","PERIOD":"95.593","OBJECT_ID":"2020-019B","OBJECT_NAME":"STARLINK-1301","EPHEMERIS_TYPE":"0","INCLINATION":"53.0550","MEAN_MOTION_DOT":"0.00000318","COUNTRY_CODE":"US","MEAN_MOTION":"15.06392300","ARG_OF_PERICENTER":"91.4453","REF_FRAME":"TEME","RCS_SIZE":"LARGE","RA_OF_ASC_NODE":"76.5100","DECAY_DATE":null,"APOAPSIS":"548.105","NORAD_CAT_ID":"45361","TLE_LINE1":"1 45361U 20019B   21306.44845419  .00000318  00000-0  40265-4 0  9995","OBJECT_TYPE":"PAYLOAD","TIME_SYSTEM":"UTC","EPOCH":"2021-11-02T10:45:46.442016","LAUNCH_DATE":"2020-03-18","TLE_LINE2":"2 45361  53.0550  76.5100 0001253  91.4453 268.6679 15.06392300 90625","MEAN_MOTION_DDOT":"0.0000000000000","MEAN_ELEMENT_THEORY":"SGP4","MEAN_ANOMALY":"268.6679","PERIAPSIS":"546.369","SEMIMAJOR_AXIS":"6925.372","ELEMENT_SET_NO":"999","ECCENTRICITY":"0.00012530"},{"EPOCH":"2021-11-02T16:38:44.570688","OBJECT_TYPE":"PAYLOAD","TIME_SYSTEM":"UTC","TLE_LINE1":"1 45362U 20019C   21306.69357142  .00001946  00000-0  14950-3 0  9993","PERIAPSIS":"546.236","SEMIMAJOR_AXIS":"6925.370","ECCENTRICITY":"0.00014420","ELEMENT_SET_NO":"999","LAUNCH_DATE":"2020-03-18","MEAN_ANOMALY":"273.4909","MEAN_ELEMENT_THEORY":"SGP4","MEAN_MOTION_DDOT":"0.0000000000000","TLE_LINE2":"2 45362  53.0533  95.4100 0001442  86.6245 273.4909 15.06393012 90375","ARG_OF_PERICENTER":"86.6245","REF_FRAME":"TEME","RA_OF_ASC_NODE":"95.4100","RCS_SIZE":"LARGE","MEAN_MOTION":"15.06393012","APOAPSIS":"548.234","NORAD_CAT_ID":"45362","DECAY_DATE":null,"BSTAR":"0.00014950000000","PERIOD":"95.593","CLASSIFICATION_TYPE":"U","COUNTRY_CODE":"US","EPHEMERIS_TYPE":"0","OBJECT_ID":"2020-019C","OBJECT_NAME":"STARLINK-1306","INCLINATION":"53.0533","MEAN_MOTION_DOT":"0.00001946","GP_ID":"188773111","SITE":"AFETR","REV_AT_EPOCH":"9037","CENTER_NAME":"EARTH","FILE":"3198350"},{"MEAN_MOTION_DOT":"0.00001756","INCLINATION":"53.0552","EPHEMERIS_TYPE":"0","OBJECT_NAME":"STARLINK-1313","OBJECT_ID":"2020-019E","COUNTRY_CODE":"US","CLASSIFICATION_TYPE":"U","PERIOD":"95.592","BSTAR":"0.00013676000000","FILE":"3197731","CENTER_NAME":"EARTH","REV_AT_EPOCH":"9075","SITE":"AFETR","GP_ID":"188737133","MEAN_ELEMENT_THEORY":"SGP4","MEAN_ANOMALY":"265.6098","MEAN_MOTION_DDOT":"0.0000000000000","TLE_LINE2":"2 45364  53.0552  66.4767 0001368  94.5048 265.6098 15.06402323 90751","LAUNCH_DATE":"2020-03-18","ECCENTRICITY":"0.00013680","SEMIMAJOR_AXIS":"6925.341","ELEMENT_SET_NO":"999","PERIAPSIS":"546.259","TLE_LINE1":"1 45364U 20019E   21306.45673437  .00001756  00000-0  13676-3 0  9990","EPOCH":"2021-11-02T10:57:41.849568","TIME_SYSTEM":"UTC","OBJECT_TYPE":"PAYLOAD","DECAY_DATE":null,"NORAD_CAT_ID":"45364","APOAPSIS":"548.154","MEAN_MOTION":"15.06402323","RA_OF_ASC_NODE":"66.4767","RCS_SIZE":"LARGE","ARG_OF_PERICENTER":"94.5048","REF_FRAME":"TEME"},{"EPOCH":"2021-11-02T11:23:57.054624","TIME_SYSTEM":"UTC","OBJECT_TYPE":"PAYLOAD","TLE_LINE1":"1 45365U 20019F   21306.47496591  .00009505  00000-0  67106-3 0  9994","PERIAPSIS":"548.845","SEMIMAJOR_AXIS":"6927.932","ELEMENT_SET_NO":"999","ECCENTRICITY":"0.00013740","LAUNCH_DATE":"2020-03-18","MEAN_ANOMALY":"267.8043","MEAN_ELEMENT_THEORY":"SGP4","TLE_LINE2":"2 45365  53.0014  76.3915 0001374  92.3103 267.8043 15.05557619 90599","MEAN_MOTION_DDOT":"0.0000000000000","REF_FRAME":"TEME","ARG_OF_PERICENTER":"92.3103","RA_OF_ASC_NODE":"76.3915","RCS_SIZE":"LARGE","MEAN_MOTION":"15.05557619","APOAPSIS":"550.748","NORAD_CAT_ID":"45365","DECAY_DATE":null,"BSTAR":"0.00067106000000","PERIOD":"95.646","CLASSIFICATION_TYPE":"U","COUNTRY_CODE":"US","EPHEMERIS_TYPE":"0","OBJECT_ID":"2020-019F","OBJECT_NAME":"STARLINK-1317","INCLINATION":"53.0014","MEAN_MOTION_DOT":"0.00009505","GP_ID":"188772609","SITE":"AFETR","REV_AT_EPOCH":"9059","CENTER_NAME":"EARTH","FILE":"3198350"},{"NORAD_CAT_ID":"45366","APOAPSIS":"548.311","DECAY_DATE":null,"ARG_OF_PERICENTER":"86.3757","REF_FRAME":"TEME","RA_OF_ASC_NODE":"95.1742","RCS_SIZE":"LARGE","MEAN_MOTION":"15.06396801","PERIAPSIS":"546.135","SEMIMAJOR_AXIS":"6925.358","ECCENTRICITY":"0.00015710","ELEMENT_SET_NO":"999","LAUNCH_DATE":"2020-03-18","MEAN_MOTION_DDOT":"0.0000000000000","TLE_LINE2":"2 45366  53.0533  95.1742 0001571  86.3757 273.7412 15.06396801 90399","MEAN_ELEMENT_THEORY":"SGP4","MEAN_ANOMALY":"273.7412","TIME_SYSTEM":"UTC","OBJECT_TYPE":"PAYLOAD","EPOCH":"2021-11-02T17:53:02.038272","TLE_LINE1":"1 45366U 20019G   21306.74516248 -.00000122  00000-0  10707-4 0  9990","SITE":"AFETR","REV_AT_EPOCH":"9039","CENTER_NAME":"EARTH","FILE":"3198350","GP_ID":"188772861","COUNTRY_CODE":"US","OBJECT_NAME":"STARLINK-1262","OBJECT_ID":"2020-019G","EPHEMERIS_TYPE":"0","MEAN_MOTION_DOT":"-0.00000122","INCLINATION":"53.0533","BSTAR":"0.00001070700000","PERIOD":"95.592","CLASSIFICATION_TYPE":"U"}];
